NORAD_CAT_ID,OBJECT_NAME,OBJECT_TYPE,EPOCH,MEAN_MOTION,ECCENTRICITY,INCLINATION,RA_OF_ASC_NODE,ARG_OF_PERICENTER,MEAN_ANOMALY,BSTAR,MEAN_MOTION_DOT,MEAN_MOTION_DDOT,TLE_LINE0,TLE_LINE1,TLE_LINE2,SEMIMAJOR_AXIS,PERIOD,APOGEE,PERIGEE,DECAYED
52300.0,STARLINK-3769,PAYLOAD,2023-09-07 11:28:54,15.08843701,0.0001238,53.2166,243.1744,87.0568,273.0566,6.408e-05,7.32e-06,0.0,0 STARLINK-3769,1 52300U 22041AR  23250.47841339  .00000732  00000-0  64080-4 0  9994,2 52300  53.2166 243.1744 0001238  87.0568 273.0566 15.08843701 77716,6917.869,95.437,540.591,538.878,0.0
52300.0,STARLINK-3769,PAYLOAD,2023-09-08 09:44:19,15.08841929,0.0001452,53.217,239.0114,95.554,264.5617,7.1253e-05,8.46e-06,0.0,0 STARLINK-3769,1 52300U 22041AR  23251.40577565  .00000846  00000-0  71253-4 0  9991,2 52300  53.2170 239.0114 0001452  95.5540 264.5617 15.08841929 77855,6917.874,95.437,540.744,538.735,0.0
52300.0,STARLINK-3769,PAYLOAD,2023-09-08 16:05:52,15.08835634,0.0001179,53.2165,237.8215,84.0843,276.0283,3.5034e-05,2.7e-06,0.0,0 STARLINK-3769,1 52300U 22041AR  23251.67074079  .00000270  00000-0  35034-4 0  9990,2 52300  53.2165 237.8215 0001179  84.0843 276.0283 15.08835634 77899,6917.894,95.438,540.574,538.943,0.0
52300.0,STARLINK-3769,PAYLOAD,2023-09-09 11:10:29,15.08840642,0.000149,53.2174,234.2526,92.1232,267.9931,7.0866e-05,8.4e-06,0.0,0 STARLINK-3769,1 52300U 22041AR  23252.46561936  .00000840  00000-0  70866-4 0  9996,2 52300  53.2174 234.2526 0001490  92.1232 267.9931 15.08840642 78012,6917.878,95.438,540.774,538.713,0.0
52300.0,STARLINK-3769,PAYLOAD,2023-09-10 03:04:21,15.08822204,0.0001621,53.2173,231.2792,95.3957,264.722,0.00032663,4.912e-05,0.0,0 STARLINK-3769,1 52300U 22041AR  23253.12802418  .00004912  00000-0  32663-3 0  9999,2 52300  53.2173 231.2792 0001621  95.3957 264.7220 15.08822204 78119,6917.935,95.439,540.921,538.678,0.0
52300.0,STARLINK-3769,PAYLOAD,2023-09-10 07:50:30,15.08840938,0.0001493,53.2173,230.3869,88.4333,271.683,0.00012088,1.636e-05,0.0,0 STARLINK-3769,1 52300U 22041AR  23253.32673979  .00001636  00000-0  12088-3 0  9998,2 52300  53.2173 230.3869 0001493  88.4333 271.6830 15.08840938 78143,6917.878,95.437,540.775,538.71,0.0
52300.0,STARLINK-3769,PAYLOAD,2023-09-10 15:47:26,15.08836613,0.0001386,53.2166,228.8998,92.277,267.8381,5.0595e-06,-2.07e-06,0.0,0 STARLINK-3769,1 52300U 22041AR  23253.65794566 -.00000207  00000-0  50595-5 0  9991,2 52300  53.2166 228.8998 0001386  92.2770 267.8381 15.08836613 78197,6917.891,95.438,540.715,538.797,0.0
52300.0,STARLINK-3769,PAYLOAD,2023-09-11 04:30:31,15.08838162,0.000143,53.2169,226.5219,86.899,273.2166,4.3353e-05,4.02e-06,0.0,0 STARLINK-3769,1 52300U 22041AR  23254.18786631  .00000402  00000-0  43353-4 0  9993,2 52300  53.2169 226.5219 0001430  86.8990 273.2166 15.08838162 78276,6917.886,95.438,540.74,538.762,0.0
52300.0,STARLINK-3769,PAYLOAD,2023-09-12 02:45:54,15.08847736,0.0001442,53.217,222.3598,84.7085,275.4071,0.00013191,1.812e-05,0.0,0 STARLINK-3769,1 52300U 22041AR  23255.11521805  .00001812  00000-0  13191-3 0  9999,2 52300  53.2170 222.3598 0001442  84.7085 275.4071 15.08847736 78419,6917.857,95.437,540.719,538.724,0.0
52300.0,STARLINK-3769,PAYLOAD,2023-09-12 04:21:17,15.08853568,0.0001352,53.2165,222.0608,89.6677,270.447,0.00013176,1.81e-05,0.0,0 STARLINK-3769,1 52300U 22041AR  23255.18145424  .00001810  00000-0  13176-3 0  9996,2 52300  53.2165 222.0608 0001352  89.6677 270.4470 15.08853568 78422,6917.839,95.437,540.639,538.769,0.0
52300.0,STARLINK-3769,PAYLOAD,2023-09-13 02:36:42,15.08842014,0.0001592,53.218,217.8998,90.3286,269.7888,9.6972e-05,1.256e-05,0.0,0 STARLINK-3769,1 52300U 22041AR  23256.10882128  .00001256  00000-0  96972-4 0  9998,2 52300  53.2180 217.8998 0001592  90.3286 269.7888 15.08842014 78567,6917.874,95.437,540.841,538.638,0.0
52300.0,STARLINK-3769,PAYLOAD,2023-09-13 04:12:04,15.08848361,0.000165,53.219,217.6015,99.0448,261.0731,0.00010986,1.461e-05,0.0,0 STARLINK-3769,1 52300U 22041AR  23256.17505693  .00001461  00000-0  10986-3 0  9992,2 52300  53.2190 217.6015 0001650  99.0448 261.0731 15.08848361 78571,6917.855,95.437,540.861,538.578,0.0
52300.0,STARLINK-3769,PAYLOAD,2023-09-14 02:27:29,15.08837458,0.0001522,53.2179,213.4398,99.161,260.9554,-4.9558e-05,-1.077e-05,0.0,0 STARLINK-3769,1 52300U 22041AR  23257.10242815 -.00001077  00000-0 -49558-4 0  9993,2 52300  53.2179 213.4398 0001522  99.1610 260.9554 15.08837458 78718,6917.888,95.438,540.806,538.7,0.0
52300.0,STARLINK-3769,PAYLOAD,2023-09-14 07:13:39,15.08837813,0.0001484,53.2176,212.5478,95.1106,265.0056,-4.193e-05,-9.55e-06,0.0,0 STARLINK-3769,1 52300U 22041AR  23257.30114815 -.00000955  00000-0 -41930-4 0  9993,2 52300  53.2176 212.5478 0001484  95.1106 265.0056 15.08837813 78748,6917.887,95.438,540.779,538.725,0.0
52300.0,STARLINK-3769,PAYLOAD,2023-09-15 03:53:39,15.08842471,0.0001418,53.2176,208.6822,97.8748,262.2405,5.557e-06,-2e-06,0.0,0 STARLINK-3769,1 52300U 22041AR  23258.16226686 -.00000200  00000-0  55570-5 0  9996,2 52300  53.2176 208.6822 0001418  97.8748 262.2405 15.08842471 78872,6917.873,95.437,540.719,538.757,0.0
52300.0,STARLINK-3769,PAYLOAD,2023-09-15 07:04:25,15.08843768,0.0001449,53.2172,208.0863,103.5225,256.5929,9.9265e-05,1.292e-05,0.0,0 STARLINK-3769,1 52300U 22041AR  23258.29474336  .00001292  00000-0  99265-4 0  9996,2 52300  53.2172 208.0863 0001449 103.5225 256.5929 15.08843768 78895,6917.869,95.437,540.736,538.731,0.0
52300.0,STARLINK-3769,PAYLOAD,2023-09-16 03:44:26,15.08844633,0.0001302,53.217,204.2213,100.6645,259.4494,0.00016922,2.407e-05,0.0,0 STARLINK-3769,1 52300U 22041AR  23259.15586277  .00002407  00000-0  16922-3 0  9997,2 52300  53.2170 204.2213 0001302 100.6645 259.4494 15.08844633 79029,6917.866,95.437,540.632,538.831,0.0
52300.0,STARLINK-3769,PAYLOAD,2023-09-17 01:59:51,15.08836952,0.0001429,53.2185,200.057,74.4656,285.6494,-2.1343e-05,-6.28e-06,0.0,0 STARLINK-3769,1 52300U 22041AR  23260.08323601 -.00000628  00000-0 -21343-4 0  9990,2 52300  53.2185 200.0570 0001429  74.4656 285.6494 15.08836952 79166,6917.89,95.438,540.743,538.766,0.0
52300.0,STARLINK-3769,PAYLOAD,2023-09-17 05:10:37,15.08839792,0.0001236,53.2176,199.4624,92.3194,267.794,7.0603e-05,8.36e-06,0.0,0 STARLINK-3769,1 52300U 22041AR  23260.21571110  .00000836  00000-0  70603-4 0  9997,2 52300  53.2176 199.4624 0001236  92.3194 267.7940 15.08839792 79183,6917.881,95.438,540.601,538.891,0.0
52300.0,STARLINK-3769,PAYLOAD,2023-09-18 01:50:37,15.08850807,0.0001248,53.2175,195.5967,95.5236,264.5898,3.2086e-05,2.23e-06,0.0,0 STARLINK-3769,1 52300U 22041AR  23261.07682336  .00000223  00000-0  32086-4 0  9998,2 52300  53.2175 195.5967 0001248  95.5236 264.5898 15.08850807 79316,6917.847,95.437,540.576,538.849,0.0
52300.0,STARLINK-3769,PAYLOAD,2023-09-18 03:26:00,15.08856489,0.0001497,53.2181,195.3014,99.4167,260.6995,0.00011279,1.508e-05,0.0,0 STARLINK-3769,1 52300U 22041AR  23261.14305904  .00001508  00000-0  11279-3 0  9996,2 52300  53.2181 195.3014 0001497  99.4167 260.6995 15.08856489 79324,6917.83,95.437,540.731,538.659,0.0
52300.0,STARLINK-3769,PAYLOAD,2023-09-18 19:19:52,15.08838166,0.0001478,53.2183,192.3263,91.7158,268.4003,0.00011636,1.564e-05,0.0,0 STARLINK-3769,1 52300U 22041AR  23261.80547035  .00001564  00000-0  11636-3 0  9991,2 52300  53.2183 192.3263 0001478  91.7158 268.4003 15.08838166 79422,6917.886,95.438,540.773,538.729,0.0
52300.0,STARLINK-3769,PAYLOAD,2023-09-19 01:41:24,15.08843884,0.0001614,53.2179,191.138,86.7919,273.3258,0.00017869,2.557e-05,0.0,0 STARLINK-3769,1 52300U 22041AR  23262.07042602  .00002557  00000-0  17869-3 0  9998,2 52300  53.2179 191.1380 0001614  86.7919 273.3258 15.08843884 79469,6917.869,95.437,540.85,538.617,0.0
52300.0,STARLINK-3769,PAYLOAD,2023-09-20 04:42:57,15.08852968,0.000156,53.2166,186.0811,82.3259,277.791,8.8446e-05,1.12e-05,0.0,0 STARLINK-3769,1 52300U 22041AR  23263.19649812  .00001120  00000-0  88446-4 0  9993,2 52300  53.2166 186.0811 0001560  82.3259 277.7910 15.08852968 79631,6917.841,95.437,540.785,538.627,0.0
52300.0,STARLINK-3769,PAYLOAD,2023-09-20 19:01:27,15.0882321,0.0001461,53.2163,183.4047,101.4976,258.618,-0.00024139,-4.126e-05,0.0,0 STARLINK-3769,1 52300U 22041AR  23263.79267647 -.00004126  00000-0 -24139-3 0  9990,2 52300  53.2163 183.4047 0001461 101.4976 258.6180 15.08823210 79724,6917.932,95.439,540.807,538.786,0.0
52300.0,STARLINK-3769,PAYLOAD,2023-09-20 22:12:13,15.0882303,0.0001312,53.2162,182.8101,106.9255,253.1881,-0.00022445,-3.857e-05,0.0,0 STARLINK-3769,1 52300U 22041AR  23263.92515745 -.00003857  00000-0 -22445-3 0  9998,2 52300  53.2162 182.8101 0001312 106.9255 253.1881 15.08823030 79742,6917.932,95.439,540.705,538.89,0.0
52300.0,STARLINK-3769,PAYLOAD,2023-09-21 04:33:46,15.08826438,0.0001193,53.2161,181.6196,101.0004,259.1123,-0.00013736,-2.472e-05,0.0,0 STARLINK-3769,1 52300U 22041AR  23264.19011845 -.00002472  00000-0 -13736-3 0  9995,2 52300  53.2161 181.6196 0001193 101.0004 259.1123 15.08826438 79781,6917.922,95.438,540.612,538.962,0.0
52300.0,STARLINK-3769,PAYLOAD,2023-09-21 22:03:00,15.08843448,0.0001179,53.2178,178.3547,98.7694,261.3432,0.00016002,2.26e-05,0.0,0 STARLINK-3769,1 52300U 22041AR  23264.91875357  .00002260  00000-0  16002-3 0  9993,2 52300  53.2178 178.3547 0001179  98.7694 261.3432 15.08843448 79893,6917.87,95.437,540.55,538.919,0.0
52300.0,STARLINK-3769,PAYLOAD,2023-09-22 01:13:45,15.08862445,0.0001152,53.2167,177.7536,99.2237,260.8886,0.00042939,6.557e-05,0.0,0 STARLINK-3769,1 52300U 22041AR  23265.05122166  .00006557  00000-0  42939-3 0  9993,2 52300  53.2167 177.7536 0001152  99.2237 260.8886 15.08862445 79910,6917.812,95.436,540.474,538.88,0.0
52300.0,STARLINK-3769,PAYLOAD,2023-09-22 04:24:31,15.08863887,0.0001092,53.2168,177.1592,100.6103,259.5012,0.00043113,6.585e-05,0.0,0 STARLINK-3769,1 52300U 22041AR  23265.18369980  .00006585  00000-0  43113-3 0  9990,2 52300  53.2168 177.1592 0001092 100.6103 259.5012 15.08863887 79938,6917.807,95.436,540.428,538.917,0.0
